YAOGAN-29               
1 41038U 15069A   22156.18544941  .00000251  00000+0  39448-4 0  9998
2 41038  98.0547 156.3176 0002145 108.9530 251.1910 14.80862092352478
HXMT (HUIYAN)           
1 42758U 17034A   22156.18890747  .00001957  00000+0  13025-3 0  9996
2 42758  43.0179  55.7793 0008921 213.1902 278.6428 15.10401928274322
AEOLUS                  
1 43600U 18066A   22156.14741697  .00077704  00000+0  30807-3 0  9994
2 43600  96.7038 162.2724 0009671  98.8464 317.5041 15.86452824219170
SAOCOM 1A               
1 43641U 18076A   22156.19084240  .00000228  00000+0  35139-4 0  9990
2 43641  97.8883 343.0654 0001440  79.7862 280.3498 14.82153919197910
SAOCOM 1B               
1 46265U 20059A   22156.22205775 -.00000231  00000+0 -22415-4 0  9990
2 46265  97.8883 342.1707 0001550  86.7685 273.3811 14.82144605 95311
TIANHE                  
1 48274U 21035A   22156.16128472  .00006537  00000+0  82755-4 0  9994
2 48274  41.4730 292.0404 0004030 219.3345 144.9912 15.59940736 62895
ASTRO-H (HITOMI)        
1 41337U 16012A   22155.35092669  .00000757  00000+0  53493-4 0  9999
2 41337  31.0037 142.8792 0012233 316.9623  43.0055 14.99383607345153
CZ-2C R/B               
1 43521U 18054D   22155.47219344  .00002479  00000+0  12873-3 0  9997
2 43521  35.1537  76.7404 0079860 327.5712  32.0112 15.13075194217719
