<?xml version="1.0" encoding="UTF-8"?>
<ndm xmlns:xsi="http://www.w3.org/2001/XMLSchema-instance" xsi:noNamespaceSchemaLocation="https://sanaregistry.org/r/ndmxml_unqualified/ndmxml-2.0.0-master-2.0.xsd">
<omm id="CCSDS_OMM_VERS" version="2.0">
<header><CREATION_DATE/><ORIGINATOR/></header><body><segment><metadata><OBJECT_NAME>YAOGAN-29</OBJECT_NAME><OBJECT_ID>2015-069A</OBJECT_ID><CENTER_NAME>EARTH</CENTER_NAME><REF_FRAME>TEME</REF_FRAME><TIME_SYSTEM>UTC</TIME_SYSTEM><MEAN_ELEMENT_THEORY>SGP4</MEAN_ELEMENT_THEORY></metadata><data><meanElements><EPOCH>2022-06-05T04:27:02.829024</EPOCH><MEAN_MOTION>14.80862092</MEAN_MOTION><ECCENTRICITY>.0002145</ECCENTRICITY><INCLINATION>98.0547</INCLINATION><RA_OF_ASC_NODE>156.3176</RA_OF_ASC_NODE><ARG_OF_PERICENTER>108.9530</ARG_OF_PERICENTER><MEAN_ANOMALY>251.1910</MEAN_ANOMALY></meanElements><tleParameters><EPHEMERIS_TYPE>0</EPHEMERIS_TYPE><CLASSIFICATION_TYPE>U</CLASSIFICATION_TYPE><NORAD_CAT_ID>41038</NORAD_CAT_ID><ELEMENT_SET_NO>999</ELEMENT_SET_NO><REV_AT_EPOCH>35247</REV_AT_EPOCH><BSTAR>.39448E-4</BSTAR><MEAN_MOTION_DOT>.251E-5</MEAN_MOTION_DOT><MEAN_MOTION_DDOT>0</MEAN_MOTION_DDOT></tleParameters></data></segment></body></omm>
<omm id="CCSDS_OMM_VERS" version="2.0">
<header><CREATION_DATE/><ORIGINATOR/></header><body><segment><metadata><OBJECT_NAME>ASTRO-H (HITOMI)</OBJECT_NAME><OBJECT_ID>2016-012A</OBJECT_ID><CENTER_NAME>EARTH</CENTER_NAME><REF_FRAME>TEME</REF_FRAME><TIME_SYSTEM>UTC</TIME_SYSTEM><MEAN_ELEMENT_THEORY>SGP4</MEAN_ELEMENT_THEORY></metadata><data><meanElements><EPOCH>2022-06-04T08:25:20.066016</EPOCH><MEAN_MOTION>14.99383607</MEAN_MOTION><ECCENTRICITY>.0012233</ECCENTRICITY><INCLINATION>31.0037</INCLINATION><RA_OF_ASC_NODE>142.8792</RA_OF_ASC_NODE><ARG_OF_PERICENTER>316.9623</ARG_OF_PERICENTER><MEAN_ANOMALY>43.0055</MEAN_ANOMALY></meanElements><tleParameters><EPHEMERIS_TYPE>0</EPHEMERIS_TYPE><CLASSIFICATION_TYPE>U</CLASSIFICATION_TYPE><NORAD_CAT_ID>41337</NORAD_CAT_ID><ELEMENT_SET_NO>999</ELEMENT_SET_NO><REV_AT_EPOCH>34515</REV_AT_EPOCH><BSTAR>.53493E-4</BSTAR><MEAN_MOTION_DOT>.757E-5</MEAN_MOTION_DOT><MEAN_MOTION_DDOT>0</MEAN_MOTION_DDOT></tleParameters></data></segment></body></omm>
<omm id="CCSDS_OMM_VERS" version="2.0">
<header><CREATION_DATE/><ORIGINATOR/></header><body><segment><metadata><OBJECT_NAME>HXMT (HUIYAN)</OBJECT_NAME><OBJECT_ID>2017-034A</OBJECT_ID><CENTER_NAME>EARTH</CENTER_NAME><REF_FRAME>TEME</REF_FRAME><TIME_SYSTEM>UTC</TIME_SYSTEM><MEAN_ELEMENT_THEORY>SGP4</MEAN_ELEMENT_THEORY></metadata><data><meanElements><EPOCH>2022-06-05T04:32:01.605408</EPOCH><MEAN_MOTION>15.10401928</MEAN_MOTION><ECCENTRICITY>.0008921</ECCENTRICITY><INCLINATION>43.0179</INCLINATION><RA_OF_ASC_NODE>55.7793</RA_OF_ASC_NODE><ARG_OF_PERICENTER>213.1902</ARG_OF_PERICENTER><MEAN_ANOMALY>278.6428</MEAN_ANOMALY></meanElements><tleParameters><EPHEMERIS_TYPE>0</EPHEMERIS_TYPE><CLASSIFICATION_TYPE>U</CLASSIFICATION_TYPE><NORAD_CAT_ID>42758</NORAD_CAT_ID><ELEMENT_SET_NO>999</ELEMENT_SET_NO><REV_AT_EPOCH>27432</REV_AT_EPOCH><BSTAR>.13025E-3</BSTAR><MEAN_MOTION_DOT>.1957E-4</MEAN_MOTION_DOT><MEAN_MOTION_DDOT>0</MEAN_MOTION_DDOT></tleParameters></data></segment></body></omm>
<omm id="CCSDS_OMM_VERS" version="2.0">
<header><CREATION_DATE/><ORIGINATOR/></header><body><segment><metadata><OBJECT_NAME>CZ-2C R/B</OBJECT_NAME><OBJECT_ID>2018-054D</OBJECT_ID><CENTER_NAME>EARTH</CENTER_NAME><REF_FRAME>TEME</REF_FRAME><TIME_SYSTEM>UTC</TIME_SYSTEM><MEAN_ELEMENT_THEORY>SGP4</MEAN_ELEMENT_THEORY></metadata><data><meanElements><EPOCH>2022-06-04T11:19:57.513216</EPOCH><MEAN_MOTION>15.13075194</MEAN_MOTION><ECCENTRICITY>.007986</ECCENTRICITY><INCLINATION>35.1537</INCLINATION><RA_OF_ASC_NODE>76.7404</RA_OF_ASC_NODE><ARG_OF_PERICENTER>327.5712</ARG_OF_PERICENTER><MEAN_ANOMALY>32.0112</MEAN_ANOMALY></meanElements><tleParameters><EPHEMERIS_TYPE>0</EPHEMERIS_TYPE><CLASSIFICATION_TYPE>U</CLASSIFICATION_TYPE><NORAD_CAT_ID>43521</NORAD_CAT_ID><ELEMENT_SET_NO>999</ELEMENT_SET_NO><REV_AT_EPOCH>21771</REV_AT_EPOCH><BSTAR>.12873E-3</BSTAR><MEAN_MOTION_DOT>.2479E-4</MEAN_MOTION_DOT><MEAN_MOTION_DDOT>0</MEAN_MOTION_DDOT></tleParameters></data></segment></body></omm>
<omm id="CCSDS_OMM_VERS" version="2.0">
<header><CREATION_DATE/><ORIGINATOR/></header><body><segment><metadata><OBJECT_NAME>AEOLUS</OBJECT_NAME><OBJECT_ID>2018-066A</OBJECT_ID><CENTER_NAME>EARTH</CENTER_NAME><REF_FRAME>TEME</REF_FRAME><TIME_SYSTEM>UTC</TIME_SYSTEM><MEAN_ELEMENT_THEORY>SGP4</MEAN_ELEMENT_THEORY></metadata><data><meanElements><EPOCH>2022-06-05T03:32:16.826208</EPOCH><MEAN_MOTION>15.86452824</MEAN_MOTION><ECCENTRICITY>.0009671</ECCENTRICITY><INCLINATION>96.7038</INCLINATION><RA_OF_ASC_NODE>162.2724</RA_OF_ASC_NODE><ARG_OF_PERICENTER>98.8464</ARG_OF_PERICENTER><MEAN_ANOMALY>317.5041</MEAN_ANOMALY></meanElements><tleParameters><EPHEMERIS_TYPE>0</EPHEMERIS_TYPE><CLASSIFICATION_TYPE>U</CLASSIFICATION_TYPE><NORAD_CAT_ID>43600</NORAD_CAT_ID><ELEMENT_SET_NO>999</ELEMENT_SET_NO><REV_AT_EPOCH>21917</REV_AT_EPOCH><BSTAR>.30807E-3</BSTAR><MEAN_MOTION_DOT>.77704E-3</MEAN_MOTION_DOT><MEAN_MOTION_DDOT>0</MEAN_MOTION_DDOT></tleParameters></data></segment></body></omm>
<omm id="CCSDS_OMM_VERS" version="2.0">
<header><CREATION_DATE/><ORIGINATOR/></header><body><segment><metadata><OBJECT_NAME>SAOCOM 1A</OBJECT_NAME><OBJECT_ID>2018-076A</OBJECT_ID><CENTER_NAME>EARTH</CENTER_NAME><REF_FRAME>TEME</REF_FRAME><TIME_SYSTEM>UTC</TIME_SYSTEM><MEAN_ELEMENT_THEORY>SGP4</MEAN_ELEMENT_THEORY></metadata><data><meanElements><EPOCH>2022-06-05T04:34:48.783360</EPOCH><MEAN_MOTION>14.82153919</MEAN_MOTION><ECCENTRICITY>.000144</ECCENTRICITY><INCLINATION>97.8883</INCLINATION><RA_OF_ASC_NODE>343.0654</RA_OF_ASC_NODE><ARG_OF_PERICENTER>79.7862</ARG_OF_PERICENTER><MEAN_ANOMALY>280.3498</MEAN_ANOMALY></meanElements><tleParameters><EPHEMERIS_TYPE>0</EPHEMERIS_TYPE><CLASSIFICATION_TYPE>U</CLASSIFICATION_TYPE><NORAD_CAT_ID>43641</NORAD_CAT_ID><ELEMENT_SET_NO>999</ELEMENT_SET_NO><REV_AT_EPOCH>19791</REV_AT_EPOCH><BSTAR>.35139E-4</BSTAR><MEAN_MOTION_DOT>.228E-5</MEAN_MOTION_DOT><MEAN_MOTION_DDOT>0</MEAN_MOTION_DDOT></tleParameters></data></segment></body></omm>
<omm id="CCSDS_OMM_VERS" version="2.0">
<header><CREATION_DATE/><ORIGINATOR/></header><body><segment><metadata><OBJECT_NAME>SAOCOM 1B</OBJECT_NAME><OBJECT_ID>2020-059A</OBJECT_ID><CENTER_NAME>EARTH</CENTER_NAME><REF_FRAME>TEME</REF_FRAME><TIME_SYSTEM>UTC</TIME_SYSTEM><MEAN_ELEMENT_THEORY>SGP4</MEAN_ELEMENT_THEORY></metadata><data><meanElements><EPOCH>2022-06-05T05:19:45.789600</EPOCH><MEAN_MOTION>14.82144605</MEAN_MOTION><ECCENTRICITY>.000155</ECCENTRICITY><INCLINATION>97.8883</INCLINATION><RA_OF_ASC_NODE>342.1707</RA_OF_ASC_NODE><ARG_OF_PERICENTER>86.7685</ARG_OF_PERICENTER><MEAN_ANOMALY>273.3811</MEAN_ANOMALY></meanElements><tleParameters><EPHEMERIS_TYPE>0</EPHEMERIS_TYPE><CLASSIFICATION_TYPE>U</CLASSIFICATION_TYPE><NORAD_CAT_ID>46265</NORAD_CAT_ID><ELEMENT_SET_NO>999</ELEMENT_SET_NO><REV_AT_EPOCH>9531</REV_AT_EPOCH><BSTAR>-.22415E-4</BSTAR><MEAN_MOTION_DOT>-.231E-5</MEAN_MOTION_DOT><MEAN_MOTION_DDOT>0</MEAN_MOTION_DDOT></tleParameters></data></segment></body></omm>
<omm id="CCSDS_OMM_VERS" version="2.0">
<header><CREATION_DATE/><ORIGINATOR/></header><body><segment><metadata><OBJECT_NAME>TIANHE</OBJECT_NAME><OBJECT_ID>2021-035A</OBJECT_ID><CENTER_NAME>EARTH</CENTER_NAME><REF_FRAME>TEME</REF_FRAME><TIME_SYSTEM>UTC</TIME_SYSTEM><MEAN_ELEMENT_THEORY>SGP4</MEAN_ELEMENT_THEORY></metadata><data><meanElements><EPOCH>2022-06-05T03:52:14.999808</EPOCH><MEAN_MOTION>15.59940736</MEAN_MOTION><ECCENTRICITY>.000403</ECCENTRICITY><INCLINATION>41.4730</INCLINATION><RA_OF_ASC_NODE>292.0404</RA_OF_ASC_NODE><ARG_OF_PERICENTER>219.3345</ARG_OF_PERICENTER><MEAN_ANOMALY>144.9912</MEAN_ANOMALY></meanElements><tleParameters><EPHEMERIS_TYPE>0</EPHEMERIS_TYPE><CLASSIFICATION_TYPE>U</CLASSIFICATION_TYPE><NORAD_CAT_ID>48274</NORAD_CAT_ID><ELEMENT_SET_NO>999</ELEMENT_SET_NO><REV_AT_EPOCH>6289</REV_AT_EPOCH><BSTAR>.82755E-4</BSTAR><MEAN_MOTION_DOT>.6537E-4</MEAN_MOTION_DOT><MEAN_MOTION_DDOT>0</MEAN_MOTION_DDOT></tleParameters></data></segment></body></omm>
</ndm>
